[{"OBJECT_NAME":"ONEWEB-0515","OBJECT_ID":"2022-138W","EPOCH":"2026-03-09T15:36:16.174944","MEAN_MOTION":13.2077114,"ECCENTRICITY":0.0002365,"INCLINATION":87.9173,"RA_OF_ASC_NODE":294.2992,"ARG_OF_PERICENTER":70.7328,"MEAN_ANOMALY":289.4061,"EPHEMERIS_TYPE":0,"CLASSIFICATION_TYPE":"U","NORAD_CAT_ID":54133,"ELEMENT_SET_NO":999,"REV_AT_EPOCH":16616,"BSTAR":-0.00026566,"MEAN_MOTION_DOT":-9.5e-7,"MEAN_MOTION_DDOT":0},{"OBJECT_NAME":"COSMOS 770","OBJECT_ID":"1975-089A","EPOCH":"2026-03-09T23:14:15.970560","MEAN_MOTION":13.19804498,"ECCENTRICITY":0.00283758,"INCLINATION":82.9533,"RA_OF_ASC_NODE":75.5278,"ARG_OF_PERICENTER":350.4032,"MEAN_ANOMALY":70.2298,"EPHEMERIS_TYPE":0,"CLASSIFICATION_TYPE":"U","NORAD_CAT_ID":8325,"ELEMENT_SET_NO":999,"REV_AT_EPOCH":43030,"BSTAR":3.5508058e-5,"MEAN_MOTION_DOT":2.7e-7,"MEAN_MOTION_DDOT":0}]
